[{"OBJECT_NAME":"SITRO-AIS 26","OBJECT_ID":"2024-039S","EPOCH":"2026-03-09T23:26:14.805600","MEAN_MOTION":14.92446154,"ECCENTRICITY":0.01456696,"INCLINATION":95.3934,"RA_OF_ASC_NODE":166.8629,"ARG_OF_PERICENTER":315.8086,"MEAN_ANOMALY":43.1576,"EPHEMERIS_TYPE":0,"CLASSIFICATION_TYPE":"U","NORAD_CAT_ID":59067,"ELEMENT_SET_NO":999,"REV_AT_EPOCH":10991,"BSTAR":0.00034113831,"MEAN_MOTION_DOT":4.263e-5,"MEAN_MOTION_DDOT":0},{"OBJECT_NAME":"FENGYUN 1C DEB","OBJECT_ID":"1999-025BHZ","EPOCH":"2026-03-07T22:36:54.618048","MEAN_MOTION":14.36818515,"ECCENTRICITY":0.01523214,"INCLINATION":98.0244,"RA_OF_ASC_NODE":55.7145,"ARG_OF_PERICENTER":59.3145,"MEAN_ANOMALY":328.6522,"EPHEMERIS_TYPE":0,"CLASSIFICATION_TYPE":"U","NORAD_CAT_ID":31171,"ELEMENT_SET_NO":999,"REV_AT_EPOCH":97053,"BSTAR":0.0065030027,"MEAN_MOTION_DOT":0.00021964,"MEAN_MOTION_DDOT":0}]
